$$SOE
2460721.500000000, A.D. 2025-Feb-15 00:00:00.0000, 1.826930927244083E+08, 3.796967852943632E+08, 3.752241152936968E+07,
2460728.500000000, A.D. 2025-Feb-22 00:00:00.0000, 1.724608084484736E+08, 3.843319107690343E+08, 3.804876631776020E+07,
2460735.500000000, A.D. 2025-Mar-01 00:00:00.0000, 1.621178322484746E+08, 3.887207109816951E+08, 3.855067718036172E+07,
2460742.500000000, A.D. 2025-Mar-08 00:00:00.0000, 1.516707769810327E+08, 3.928603155627699E+08, 3.902781452299863E+07,
2460749.500000000, A.D. 2025-Mar-15 00:00:00.0000, 1.411263460758404E+08, 3.967480641884713E+08, 3.947986946826234E+07,
2460756.500000000, A.D. 2025-Mar-22 00:00:00.0000, 1.304913230642576E+08, 4.003815103374263E+08, 3.990655449410105E+07,
2460763.500000000, A.D. 2025-Mar-29 00:00:00.0000, 1.197725623156206E+08, 4.037584223809716E+08, 4.030760372327161E+07,
2460770.500000000, A.D. 2025-Apr-05 00:00:00.0000, 1.089769813336208E+08, 4.068767851396702E+08, 4.068277308915243E+07,
2460777.500000000, A.D. 2025-Apr-12 00:00:00.0000, 9.811155271299607E+07, 4.097348020019062E+08, 4.103184056146300E+07,
2460784.500000000, A.D. 2025-Apr-19 00:00:00.0000, 8.718329559444529E+07, 4.123308967176180E+08, 4.135460637583777E+07,
2460791.500000000, A.D. 2025-Apr-26 00:00:00.0000, 7.619926691521123E+07, 4.146637146615660E+08, 4.165089322490862E+07,
2460798.500000000, A.D. 2025-May-03 00:00:00.0000, 6.516655259528289E+07, 4.167321235848286E+08, 4.192054640141997E+07,
2460805.500000000, A.D. 2025-May-10 00:00:00.0000, 5.409225871416805E+07, 4.185352138645231E+08, 4.216343389105782E+07,
2460812.500000000, A.D. 2025-May-17 00:00:00.0000, 4.298350274115537E+07, 4.200722982137930E+08, 4.237944640808737E+07,
2460819.500000000, A.D. 2025-May-24 00:00:00.0000, 3.184740501873901E+07, 4.213429108024970E+08, 4.256849735346219E+07,
2460826.500000000, A.D. 2025-May-31 00:00:00.0000, 2.069108094209472E+07, 4.223468061067389E+08, 4.273052268287957E+07,
2460833.500000000, A.D. 2025-Jun-07 00:00:00.0000, 9.521633458848368E+06, 4.230839587020651E+08, 4.286548082069492E+07,
2460840.500000000, A.D. 2025-Jun-14 00:00:00.0000, -1.653856449227164E+06, 4.235545633430872E+08, 4.297335278253713E+07,
2460847.500000000, A.D. 2025-Jun-21 00:00:00.0000, -1.282834006310611E+07, 4.237590320654978E+08, 4.305414212813714E+07,
2460854.500000000, A.D. 2025-Jun-28 00:00:00.0000, -2.399480885434128E+07, 4.236979900895241E+08, 4.310787460324633E+07,
2460861.500000000, A.D. 2025-Jul-05 00:00:00.0000, -3.514630153819540E+07, 4.233722726989101E+08, 4.313459778758109E+07,
2460868.500000000, A.D. 2025-Jul-12 00:00:00.0000, -4.627591142171456E+07, 4.227829223048145E+08, 4.313438079345933E+07,
2460875.500000000, A.D. 2025-Jul-19 00:00:00.0000, -5.737679383859456E+07, 4.219311851350856E+08, 4.310731395227692E+07,
2460882.500000000, A.D. 2025-Jul-26 00:00:00.0000, -6.844217344389050E+07, 4.208185075096939E+08, 4.305350846676350E+07,
2460889.500000000, A.D. 2025-Aug-02 00:00:00.0000, -7.946535128750622E+07, 4.194465317424717E+08, 4.297309602678341E+07,
2460896.500000000, A.D. 2025-Aug-09 00:00:00.0000, -9.043971162886047E+07, 4.178170916738491E+08, 4.286622838748485E+07,
2460903.500000000, A.D. 2025-Aug-16 00:00:00.0000, -1.013587284032039E+08, 4.159322077913365E+08, 4.273307689986217E+07,
2460910.500000000, A.D. 2025-Aug-23 00:00:00.0000, -1.122159710360921E+08, 4.137940819747754E+08, 4.257383197067073E+07,
2460917.500000000, A.D. 2025-Aug-30 00:00:00.0000, -1.230051092680895E+08, 4.114050926018301E+08, 4.238870248246610E+07,
2460924.500000000, A.D. 2025-Sep-06 00:00:00.0000, -1.337199183998750E+08, 4.087677910370974E+08, 4.217791538825554E+07,
2460931.500000000, A.D. 2025-Sep-13 00:00:00.0000, -1.443542866190946E+08, 4.058848970433442E+08, 4.194171543330109E+07,
2460938.500000000, A.D. 2025-Sep-20 00:00:00.0000, -1.549022211285103E+08, 4.027592914863111E+08, 4.168036457126936E+07,
2460945.500000000, A.D. 2025-Sep-27 00:00:00.0000, -1.653578520152555E+08, 3.993940094631377E+08, 4.139414123420444E+07,
2460952.500000000, A.D. 2025-Oct-04 00:00:00.0000, -1.757154358764973E+08, 3.957922344143146E+08, 4.108333968764240E+07,
2460959.500000000, A.D. 2025-Oct-11 00:00:00.0000, -1.859693595753331E+08, 3.919572922946428E+08, 4.074826943028060E+07,
2460966.500000000, A.D. 2025-Oct-18 00:00:00.0000, -1.961141438464040E+08, 3.878926455482248E+08, 4.038925459228092E+07,
2460973.500000000, A.D. 2025-Oct-25 00:00:00.0000, -2.061444466158514E+08, 3.836018869197332E+08, 4.000663332287885E+07,
2460980.500000000, A.D. 2025-Nov-01 00:00:00.0000, -2.160550660001883E+08, 3.790887331386960E+08, 3.960075716721244E+07,
2460987.500000000, A.D. 2025-Nov-08 00:00:00.0000, -2.258409429536404E+08, 3.743570184651596E+08, 3.917199042848316E+07,
2460994.500000000, A.D. 2025-Nov-15 00:00:00.0000, -2.354971634209599E+08, 3.694106880560495E+08, 3.872070949863452E+07,
2461001.500000000, A.D. 2025-Nov-22 00:00:00.0000, -2.450189595991700E+08, 3.642537913885548E+08, 3.824730213997851E+07,
2461008.500000000, A.D. 2025-Nov-29 00:00:00.0000, -2.544017104694477E+08, 3.588904768910002E+08, 3.775216682594354E+07,
2461015.500000000, A.D. 2025-Dec-06 00:00:00.0000, -2.636409438859604E+08, 3.533249876614082E+08, 3.723571234012173E+07,
2461022.500000000, A.D. 2025-Dec-13 00:00:00.0000, -2.727323397955326E+08, 3.475616549183486E+08, 3.669835731959222E+07,
2461029.500000000, A.D. 2025-Dec-20 00:00:00.0000, -2.816717311028934E+08, 3.416048902173583E+08, 3.614052950678442E+07,
2461036.500000000, A.D. 2025-Dec-27 00:00:00.0000, -2.904551032678414E+08, 3.354591790358952E+08, 3.556266502149320E+07,
2461043.500000000, A.D. 2026-Jan-03 00:00:00.0000, -2.990785941054912E+08, 3.291290751252993E+08, 3.496520773789884E+07,
2461050.500000000, A.D. 2026-Jan-10 00:00:00.0000, -3.075384936900687E+08, 3.226191949626722E+08, 3.434860870213929E+07,
2461057.500000000, A.D. 2026-Jan-17 00:00:00.0000, -3.158312441402638E+08, 3.159342122211447E+08, 3.371332556262146E+07,
2461064.500000000, A.D. 2026-Jan-24 00:00:00.0000, -3.239534392191625E+08, 3.090788522904652E+08, 3.305982200869995E+07,
2461071.500000000, A.D. 2026-Jan-31 00:00:00.0000, -3.319018237362776E+08, 3.020578868489108E+08, 3.238856721576455E+07,
2461078.500000000, A.D. 2026-Feb-07 00:00:00.0000, -3.396732927010454E+08, 2.948761284364733E+08, 3.170003528708717E+07,
2461085.500000000, A.D. 2026-Feb-14 00:00:00.0000, -3.472648899856400E+08, 2.875384250200437E+08, 3.099470466854292E+07,
2461092.500000000, A.D. 2026-Feb-21 00:00:00.0000, -3.546738061208013E+08, 2.800496551323280E+08, 3.027305754835682E+07,
2461099.500000000, A.D. 2026-Feb-28 00:00:00.0000, -3.618973763219660E+08, 2.724147247419215E+08, 2.953557943620484E+07,
2461106.500000000, A.D. 2026-Mar-07 00:00:00.0000, -3.689330808177041E+08, 2.646385639093083E+08, 2.878275895172603E+07,
2461113.500000000, A.D. 2026-Mar-14 00:00:00.0000, -3.757785447155814E+08, 2.567261209003461E+08, 2.801508737776420E+07,
2461120.500000000, A.D. 2026-Mar-21 00:00:00.0000, -3.824315356319872E+08, 2.486823566559273E+08, 2.723305805209084E+07,
2461127.500000000, A.D. 2026-Mar-28 00:00:00.0000, -3.888899611078812E+08, 2.405122406473306E+08, 2.643716586641590E+07,
2461134.500000000, A.D. 2026-Apr-04 00:00:00.0000, -3.951518664263347E+08, 2.322207471542065E+08, 2.562790684951162E+07,
2461141.500000000, A.D. 2026-Apr-11 00:00:00.0000, -4.012154325679117E+08, 2.238128516066606E+08, 2.480577778016618E+07,
2461148.500000000, A.D. 2026-Apr-18 00:00:00.0000, -4.070789741538339E+08, 2.152935269846032E+08, 2.397127581498131E+07,
2461155.500000000, A.D. 2026-Apr-25 00:00:00.0000, -4.127409373402204E+08, 2.066677402881836E+08, 2.312489812812816E+07,
2461162.500000000, A.D. 2026-May-02 00:00:00.0000, -4.181998976416358E+08, 1.979404490484334E+08, 2.226714155788411E+07,
2461169.500000000, A.D. 2026-May-09 00:00:00.0000, -4.234545575679273E+08, 1.891165978104139E+08, 2.139850224310404E+07,
2461176.500000000, A.D. 2026-May-16 00:00:00.0000, -4.285037437043650E+08, 1.802011147255290E+08, 2.051947522617465E+07,
2461183.500000000, A.D. 2026-May-23 00:00:00.0000, -4.333464031904767E+08, 1.711989092732880E+08, 1.963055410104778E+07,
2461190.500000000, A.D. 2026-May-30 00:00:00.0000, -4.379816016831134E+08, 1.621148714295248E+08, 1.873223092276785E+07,
2461197.500000000, A.D. 2026-Jun-06 00:00:00.0000, -4.424085231280591E+08, 1.529538690053162E+08, 1.782499613965137E+07,
2461204.500000000, A.D. 2026-Jun-13 00:00:00.0000, -4.466264676784629E+08, 1.437207433526145E+08, 1.690933822774553E+07,
2461211.500000000, A.D. 2026-Jun-20 00:00:00.0000, -4.506348482647265E+08, 1.344203063567015E+08, 1.598574331221826E+07,
2461218.500000000, A.D. 2026-Jun-27 00:00:00.0000, -4.544331875217552E+08, 1.250573383694190E+08, 1.505469490314004E+07,
2461225.500000000, A.D. 2026-Jul-04 00:00:00.0000, -4.580211150826354E+08, 1.156365863046123E+08, 1.411667368175466E+07,
2461232.500000000, A.D. 2026-Jul-11 00:00:00.0000, -4.613983649921574E+08, 1.061627617613762E+08, 1.317215730255936E+07,
2461239.500000000, A.D. 2026-Jul-18 00:00:00.0000, -4.645647731531212E+08, 9.664053919818565E+07, 1.222162020414207E+07,
2461246.500000000, A.D. 2026-Jul-25 00:00:00.0000, -4.675202747855074E+08, 8.707455415747282E+07, 1.126553342610147E+07,
2461253.500000000, A.D. 2026-Aug-01 00:00:00.0000, -4.702649018542472E+08, 7.746940148887250E+07, 1.030436442308204E+07,
2461260.500000000, A.D. 2026-Aug-08 00:00:00.0000, -4.727987802541137E+08, 6.782963353124534E+07, 9.338576852718152E+06,
2461267.500000000, A.D. 2026-Aug-15 00:00:00.0000, -4.751221263397222E+08, 5.815975869964653E+07, 8.368630335724439E+06,
2461274.500000000, A.D. 2026-Aug-22 00:00:00.0000, -4.772352435645152E+08, 4.846424169398417E+07, 7.394980357274534E+06,
2461281.500000000, A.D. 2026-Aug-29 00:00:00.0000, -4.791385215214793E+08, 3.874750395190506E+07, 6.418078406937821E+06,
2461288.500000000, A.D. 2026-Sep-05 00:00:00.0000, -4.808324352562850E+08, 2.901392147410150E+07, 5.438371926630065E+06,
$$EOE